start=new Date('2023-05-05T00:00:00.000Z').valueOf();
sats=[{"FILE":"3901186","RCS_SIZE":"LARGE","PERIOD":"95.438","OBJECT_NAME":"STARLINK-4633","EPHEMERIS_TYPE":"0","ELEMENT_SET_NO":"999","CLASSIFICATION_TYPE":"U","SITE":"AFWTR","REF_FRAME":"TEME","BSTAR":"0.00016531000000","MEAN_MOTION":"15.08835412","NORAD_CAT_ID":"53964","DECAY_DATE":null,"MEAN_ANOMALY":"265.6484","MEAN_MOTION_DOT":"0.00002344","SEMIMAJOR_AXIS":"6917.894","RA_OF_ASC_NODE":"213.3631","OBJECT_TYPE":"PAYLOAD","MEAN_MOTION_DDOT":"0.0000000000000","PERIAPSIS":"538.906","EPOCH":"2023-05-04T14:42:12.182400","TIME_SYSTEM":"UTC","REV_AT_EPOCH":"3230","GP_ID":"231274164","INCLINATION":"53.2162","TLE_LINE1":"1 53964U 22125A   23124.61264100  .00002344  00000-0  16531-3 0  9993","ECCENTRICITY":"0.00012330","OBJECT_ID":"2022-125A","CENTER_NAME":"EARTH","LAUNCH_DATE":"2022-10-05","COUNTRY_CODE":"US","MEAN_ELEMENT_THEORY":"SGP4","ARG_OF_PERICENTER":"94.4649","TLE_LINE2":"2 53964  53.2162 213.3631 0001233  94.4649 265.6484 15.08835412 32302","APOAPSIS":"540.612"},{"OBJECT_ID":"2022-125B","CENTER_NAME":"EARTH","LAUNCH_DATE":"2022-10-05","COUNTRY_CODE":"US","RA_OF_ASC_NODE":"213.9402","OBJECT_TYPE":"PAYLOAD","MEAN_MOTION_DDOT":"0.0000000000000","EPOCH":"2023-05-04T11:27:30.263904","PERIAPSIS":"539.000","REV_AT_EPOCH":"3228","TIME_SYSTEM":"UTC","GP_ID":"231241864","TLE_LINE1":"1 53965U 22125B   23124.47743361  .00003649  00000-0  24723-3 0  9990","INCLINATION":"53.2161","ECCENTRICITY":"0.00010600","TLE_LINE2":"2 53965  53.2161 213.9402 0001060  94.1613 265.9500 15.08843990 32289","APOAPSIS":"540.466","MEAN_ELEMENT_THEORY":"SGP4","ARG_OF_PERICENTER":"94.1613","SITE":"AFWTR","CLASSIFICATION_TYPE":"U","FILE":"3900892","RCS_SIZE":"LARGE","PERIOD":"95.437","OBJECT_NAME":"STARLINK-4578","EPHEMERIS_TYPE":"0","ELEMENT_SET_NO":"999","DECAY_DATE":null,"MEAN_ANOMALY":"265.9500","MEAN_MOTION_DOT":"0.00003649","SEMIMAJOR_AXIS":"6917.868","REF_FRAME":"TEME","BSTAR":"0.00024723000000","MEAN_MOTION":"15.08843990","NORAD_CAT_ID":"53965"},{"CLASSIFICATION_TYPE":"U","SITE":"AFWTR","ELEMENT_SET_NO":"999","EPHEMERIS_TYPE":"0","OBJECT_NAME":"STARLINK-4635","PERIOD":"95.437","RCS_SIZE":"LARGE","FILE":"3900911","SEMIMAJOR_AXIS":"6917.849","MEAN_MOTION_DOT":"0.00008994","MEAN_ANOMALY":"263.6645","DECAY_DATE":null,"NORAD_CAT_ID":"53966","MEAN_MOTION":"15.08850357","BSTAR":"0.00058226000000","REF_FRAME":"TEME","COUNTRY_CODE":"US","LAUNCH_DATE":"2022-10-05","CENTER_NAME":"EARTH","OBJECT_ID":"2022-125C","TLE_LINE1":"1 53966U 22125C   23124.67150869  .00008994  00000-0  58226-3 0  9991","ECCENTRICITY":"0.00009530","INCLINATION":"53.2164","GP_ID":"231243304","REV_AT_EPOCH":"3238","TIME_SYSTEM":"UTC","EPOCH":"2023-05-04T16:06:58.350816","PERIAPSIS":"539.054","MEAN_MOTION_DDOT":"0.0000000000000","OBJECT_TYPE":"PAYLOAD","RA_OF_ASC_NODE":"213.0190","APOAPSIS":"540.373","TLE_LINE2":"2 53966  53.2164 213.0190 0000953  96.4455 263.6645 15.08850357 32388","ARG_OF_PERICENTER":"96.4455","MEAN_ELEMENT_THEORY":"SGP4"},{"EPHEMERIS_TYPE":"0","ELEMENT_SET_NO":"999","PERIOD":"95.437","OBJECT_NAME":"STARLINK-4634","RCS_SIZE":"LARGE","FILE":"3900912","SITE":"AFWTR","CLASSIFICATION_TYPE":"U","MEAN_MOTION":"15.08844774","NORAD_CAT_ID":"53967","REF_FRAME":"TEME","BSTAR":"0.00027348000000","SEMIMAJOR_AXIS":"6917.866","MEAN_MOTION_DOT":"0.00004068","DECAY_DATE":null,"MEAN_ANOMALY":"270.8383","GP_ID":"231243202","TLE_LINE1":"1 53967U 22125D   23124.53534553  .00004068  00000-0  27348-3 0  9992","ECCENTRICITY":"0.00008320","INCLINATION":"53.2155","EPOCH":"2023-05-04T12:50:53.853792","PERIAPSIS":"539.155","REV_AT_EPOCH":"3236","TIME_SYSTEM":"UTC","MEAN_MOTION_DDOT":"0.0000000000000","RA_OF_ASC_NODE":"213.5905","OBJECT_TYPE":"PAYLOAD","COUNTRY_CODE":"US","LAUNCH_DATE":"2022-10-05","OBJECT_ID":"2022-125D","CENTER_NAME":"EARTH","ARG_OF_PERICENTER":"89.2704","MEAN_ELEMENT_THEORY":"SGP4","APOAPSIS":"540.306","TLE_LINE2":"2 53967  53.2155 213.5905 0000832  89.2704 270.8383 15.08844774 32364"},{"TLE_LINE2":"2 53968  53.2164 212.9291 0001107  86.3742 273.7377 15.08847147 32319","APOAPSIS":"540.489","MEAN_ELEMENT_THEORY":"SGP4","ARG_OF_PERICENTER":"86.3742","CENTER_NAME":"EARTH","OBJECT_ID":"2022-125E","LAUNCH_DATE":"2022-10-05","COUNTRY_CODE":"US","OBJECT_TYPE":"PAYLOAD","RA_OF_ASC_NODE":"212.9291","MEAN_MOTION_DDOT":"0.0000000000000","REV_AT_EPOCH":"3231","TIME_SYSTEM":"UTC","PERIAPSIS":"538.958","EPOCH":"2023-05-04T15:45:44.985888","TLE_LINE1":"1 53968U 22125E   23124.65677067  .00003926  00000-0  26458-3 0  9997","ECCENTRICITY":"0.00011070","INCLINATION":"53.2164","GP_ID":"231274664","MEAN_ANOMALY":"273.7377","DECAY_DATE":null,"MEAN_MOTION_DOT":"0.00003926","SEMIMAJOR_AXIS":"6917.859","BSTAR":"0.00026458000000","REF_FRAME":"TEME","NORAD_CAT_ID":"53968","MEAN_MOTION":"15.08847147","SITE":"AFWTR","CLASSIFICATION_TYPE":"U","FILE":"3901186","RCS_SIZE":"LARGE","OBJECT_NAME":"STARLINK-4629","PERIOD":"95.437","ELEMENT_SET_NO":"999","EPHEMERIS_TYPE":"0"},{"REF_FRAME":"TEME","BSTAR":"0.00017837000000","MEAN_MOTION":"15.08846209","NORAD_CAT_ID":"53969","DECAY_DATE":null,"MEAN_ANOMALY":"262.4610","MEAN_MOTION_DOT":"0.00002552","SEMIMAJOR_AXIS":"6917.861","FILE":"3901186","RCS_SIZE":"LARGE","PERIOD":"95.437","OBJECT_NAME":"STARLINK-4468","EPHEMERIS_TYPE":"0","ELEMENT_SET_NO":"999","SITE":"AFWTR","CLASSIFICATION_TYPE":"U","MEAN_ELEMENT_THEORY":"SGP4","ARG_OF_PERICENTER":"97.6530","TLE_LINE2":"2 53969  53.2176 212.9760 0001303  97.6530 262.4610 15.08846209 32315","APOAPSIS":"540.628","RA_OF_ASC_NODE":"212.9760","OBJECT_TYPE":"PAYLOAD","MEAN_MOTION_DDOT":"0.0000000000000","EPOCH":"2023-05-04T15:56:21.481728","PERIAPSIS":"538.825","TIME_SYSTEM":"UTC","REV_AT_EPOCH":"3231","GP_ID":"231274417","ECCENTRICITY":"0.00013030","TLE_LINE1":"1 53969U 22125F   23124.66413752  .00002552  00000-0  17837-3 0  9993","INCLINATION":"53.2176","OBJECT_ID":"2022-125F","CENTER_NAME":"EARTH","LAUNCH_DATE":"2022-10-05","COUNTRY_CODE":"US"},{"SITE":"AFWTR","CLASSIFICATION_TYPE":"U","EPHEMERIS_TYPE":"0","ELEMENT_SET_NO":"999","PERIOD":"95.334","OBJECT_NAME":"STARLINK-4567","RCS_SIZE":"LARGE","FILE":"3901186","SEMIMAJOR_AXIS":"6912.857","MEAN_MOTION_DOT":"0.00004099","DECAY_DATE":null,"MEAN_ANOMALY":"269.0216","MEAN_MOTION":"15.10484908","NORAD_CAT_ID":"53970","REF_FRAME":"TEME","BSTAR":"0.00026358000000","COUNTRY_CODE":"US","LAUNCH_DATE":"2022-10-05","OBJECT_ID":"2022-125G","CENTER_NAME":"EARTH","GP_ID":"231275668","TLE_LINE1":"1 53970U 22125G   23124.62334412  .00004099  00000-0  26358-3 0  9992","INCLINATION":"53.2159","ECCENTRICITY":"0.00012380","PERIAPSIS":"533.866","EPOCH":"2023-05-04T14:57:36.931968","REV_AT_EPOCH":"3237","TIME_SYSTEM":"UTC","MEAN_MOTION_DDOT":"0.0000000000000","RA_OF_ASC_NODE":"208.4454","OBJECT_TYPE":"PAYLOAD","APOAPSIS":"535.578","TLE_LINE2":"2 53970  53.2159 208.4454 0001238  91.0919 269.0216 15.10484908 32372","ARG_OF_PERICENTER":"91.0919","MEAN_ELEMENT_THEORY":"SGP4"},{"SITE":"AFWTR","CLASSIFICATION_TYPE":"U","RCS_SIZE":"LARGE","FILE":"3900921","ELEMENT_SET_NO":"999","EPHEMERIS_TYPE":"0","OBJECT_NAME":"STARLINK-4639","PERIOD":"95.437","MEAN_ANOMALY":"259.4379","DECAY_DATE":null,"SEMIMAJOR_AXIS":"6917.857","MEAN_MOTION_DOT":"0.00012438","NORAD_CAT_ID":"53971","MEAN_MOTION":"15.08847607","BSTAR":"0.00079799000000","REF_FRAME":"TEME","LAUNCH_DATE":"2022-10-05","CENTER_NAME":"EARTH","OBJECT_ID":"2022-125H","COUNTRY_CODE":"US","MEAN_MOTION_DDOT":"0.0000000000000","OBJECT_TYPE":"PAYLOAD","RA_OF_ASC_NODE":"213.5458","TLE_LINE1":"1 53971U 22125H   23124.52797583  .00012438  00000-0  79799-3 0  9997","INCLINATION":"53.2154","ECCENTRICITY":"0.00006200","GP_ID":"231243423","REV_AT_EPOCH":"3236","TIME_SYSTEM":"UTC","PERIAPSIS":"539.293","EPOCH":"2023-05-04T12:40:17.111712","TLE_LINE2":"2 53971  53.2154 213.5458 0000620 100.6683 259.4379 15.08847607 32366","APOAPSIS":"540.151","MEAN_ELEMENT_THEORY":"SGP4","ARG_OF_PERICENTER":"100.6683"},{"CLASSIFICATION_TYPE":"U","SITE":"AFWTR","PERIOD":"95.333","OBJECT_NAME":"STARLINK-5157","EPHEMERIS_TYPE":"0","ELEMENT_SET_NO":"999","FILE":"3901186","RCS_SIZE":"LARGE","MEAN_MOTION_DOT":"0.00009200","SEMIMAJOR_AXIS":"6912.850","DECAY_DATE":null,"MEAN_ANOMALY":"271.3231","REF_FRAME":"TEME","BSTAR":"0.00056932000000","MEAN_MOTION":"15.10487169","NORAD_CAT_ID":"53972","COUNTRY_CODE":"US","OBJECT_ID":"2022-125J","CENTER_NAME":"EARTH","LAUNCH_DATE":"2022-10-05","EPOCH":"2023-05-04T14:18:00.885312","PERIAPSIS":"534.003","REV_AT_EPOCH":"3237","TIME_SYSTEM":"UTC","GP_ID":"231274165","INCLINATION":"53.2165","TLE_LINE1":"1 53972U 22125J   23124.59584358  .00009200  00000-0  56932-3 0  9996","ECCENTRICITY":"0.00010300","RA_OF_ASC_NODE":"208.2743","OBJECT_TYPE":"PAYLOAD","MEAN_MOTION_DDOT":"0.0000000000000","APOAPSIS":"535.427","TLE_LINE2":"2 53972  53.2165 208.2743 0001030  88.7879 271.3231 15.10487169 32373","ARG_OF_PERICENTER":"88.7879","MEAN_ELEMENT_THEORY":"SGP4"},{"OBJECT_ID":"2022-125K","CENTER_NAME":"EARTH","LAUNCH_DATE":"2022-10-05","COUNTRY_CODE":"US","RA_OF_ASC_NODE":"213.5014","OBJECT_TYPE":"PAYLOAD","MEAN_MOTION_DDOT":"0.0000000000000","EPOCH":"2023-05-04T12:29:40.841376","PERIAPSIS":"539.045","REV_AT_EPOCH":"3229","TIME_SYSTEM":"UTC","GP_ID":"231241865","ECCENTRICITY":"0.00009430","TLE_LINE1":"1 53973U 22125K   23124.52061159  .00016532  00000-0  10539-2 0  9997","INCLINATION":"53.2149","TLE_LINE2":"2 53973  53.2149 213.5014 0000943  60.1479 299.9607 15.08855759 32293","APOAPSIS":"540.350","MEAN_ELEMENT_THEORY":"SGP4","ARG_OF_PERICENTER":"60.1479","CLASSIFICATION_TYPE":"U","SITE":"AFWTR","FILE":"3900892","RCS_SIZE":"LARGE","PERIOD":"95.437","OBJECT_NAME":"STARLINK-5156","EPHEMERIS_TYPE":"0","ELEMENT_SET_NO":"999","DECAY_DATE":null,"MEAN_ANOMALY":"299.9607","MEAN_MOTION_DOT":"0.00016532","SEMIMAJOR_AXIS":"6917.832","REF_FRAME":"TEME","BSTAR":"0.00105390000000","MEAN_MOTION":"15.08855759","NORAD_CAT_ID":"53973"}];
